GLOBALSTAR M069         
1 31573U 07020C   26194.00103056 -.00000086  00000+0  57321-4 0  9991
2 31573  52.0009 179.0623 0001705 205.4166 188.5523 12.23472161881965
GLOBALSTAR M072         
1 31574U 07020D   26194.08046381 -.00000073  00000+0  15614-3 0  9991
2 31574  51.9946  31.3105 0001656  31.2539 144.7741 11.91658704878069
GLOBALSTAR M066         
1 32265U 07048C   26193.85128615 -.00000065  00000+0  24796-3 0  9996
2 32265  51.9611 344.2390 0005631  97.0286  66.9340 12.30389166863380
GLOBALSTAR M079         
1 37188U 10054A   26193.97296788 -.00000100  00000+0  20317-4 0  9992
2 37188  52.0051  30.1742 0001114  73.9581  90.4107 12.62266412725804
GLOBALSTAR M074         
1 37189U 10054B   26193.74338154 -.00000097  00000+0  36171-4 0  9992
2 37189  52.0029  30.1345 0000869  90.1164 350.4825 12.62262035726380
GLOBALSTAR M076         
1 37190U 10054C   26193.94288925 -.00000086  00000+0  96636-4 0  9996
2 37190  52.0044  29.7329 0001098  86.3095  61.2249 12.62262283726124
GLOBALSTAR M077         
1 37191U 10054D   26194.16925791 -.00000092  00000+0 -24973-3 0  9993
2 37191  51.9950 113.3485 0002301 221.2592 287.1594 11.67547630724173
GLOBALSTAR M075         
1 37192U 10054E   26194.03344788 -.00000099  00000+0  24892-4 0  9998
2 37192  51.9950  71.4966 0000719  61.9364  77.7815 12.62267797725202
GLOBALSTAR M073         
1 37193U 10054F   26193.88084178 -.00000104  00000+0 -35579-5 0  9998
2 37193  52.0080 346.0817 0001087  93.1551  71.1005 12.62266872727179
GLOBALSTAR M083         
1 37739U 11033A   26193.47946881 -.00000090  00000+0  74362-4 0  9990
2 37739  51.9870 295.4988 0000829 103.0342 337.7221 12.62264008696140
GLOBALSTAR M088         
1 37740U 11033B   26194.07800521 -.00000091  00000+0  72789-4 0  9991
2 37740  52.0186 200.1650 0000081 152.9883 247.6057 12.62269438691767
GLOBALSTAR M091         
1 37741U 11033C   26193.93143740 -.00000112  00000+0 -48084-4 0  9995
2 37741  51.9977 163.5377 0000373  19.1341  15.7453 12.62264253692539
GLOBALSTAR M085         
1 37742U 11033D   26194.18424042 -.00000115  00000+0 -61509-4 0  9991
2 37742  52.0122 114.0832 0000744  38.1280 126.1063 12.62264314693078
GLOBALSTAR M081         
1 37743U 11033E   26194.20734021 -.00000122  00000+0 -10447-3 0  9998
2 37743  51.9951 116.4193 0000635  52.1765  96.9089 12.62265286693224
GLOBALSTAR M089         
1 37744U 11033F   26194.08869043 -.00000100  00000+0  22595-4 0  9991
2 37744  51.9933  70.9345 0000681  87.1405  63.6032 12.62267557694052
GLOBALSTAR M084         
1 38040U 11080A   26192.33406171 -.00000097  00000+0  36683-4 0  9996
2 38040  52.0028 303.7724 0000939 123.2364 270.2173 12.62267887671816
GLOBALSTAR M080         
1 38041U 11080B   26193.50375738 -.00000088  00000+0  89222-4 0  9998
2 38041  52.0063 301.9378 0000328  82.4207 358.7321 12.62257343672088
GLOBALSTAR M082         
1 38042U 11080C   26194.22175647 -.00000073  00000+0  17334-3 0  9994
2 38042  52.0061 255.2568 0000197 103.1812 292.1236 12.62264101672880
GLOBALSTAR M092         
1 38043U 11080D   26193.90755948 -.00000089  00000+0  82783-4 0  9995
2 38043  52.0104 346.6100 0000815  99.7089  66.4770 12.62267739671298
GLOBALSTAR M090         
1 38044U 11080E   26191.23949641 -.00000081  00000+0  12812-3 0  9992
2 38044  52.0114 258.2983 0000451 107.2704 288.2798 12.62253056672621
GLOBALSTAR M086         
1 38045U 11080F   26194.19008639 -.00000079  00000+0  14081-3 0  9991
2 38045  51.9878 249.2035 0001552 109.1563 284.4713 12.62287707672942
GLOBALSTAR M097         
1 39072U 13005A   26193.89771573 -.00000115  00000+0 -65022-4 0  9995
2 39072  52.0025 165.0700 0000366  35.8663 324.2228 12.62271427620153
GLOBALSTAR M093         
1 39073U 13005B   26193.95012365 -.00000114  00000+0 -55930-4 0  9996
2 39073  52.0086 158.2669 0000596  41.0507 319.0404 12.62266344620116
GLOBALSTAR M094         
1 39074U 13005C   26193.87079163 -.00000121  00000+0 -95421-4 0  9994
2 39074  51.9967  72.6003 0000948  58.2720 301.8239 12.62264077621715
GLOBALSTAR M096         
1 39075U 13005D   26193.80513618 -.00000121  00000+0 -95270-4 0  9998
2 39075  52.0065 121.6211 0000686  36.2149 323.8764 12.62265656620623
GLOBALSTAR M078         
1 39076U 13005E   26193.06559569 -.00000083  00000+0  11342-3 0  9995
2 39076  51.9843 207.8490 0000758 328.5209  31.5612 12.62260125619153
GLOBALSTAR M095         
1 39077U 13005F   26193.40901959 -.00000081  00000+0  12839-3 0  9998
2 39077  52.0054 204.4426 0000352  10.4758 349.6116 12.62264177619050
GLOBALSTAR M087         
1 52888U 22064A   26193.58051144 -.00000103  00000+0  31520-5 0  9994
2 52888  52.0015 345.1442 0000929  82.3508 277.7464 12.62269324194340
